[{"OBJECT_NAME":"STARLINK-30566","OBJECT_ID":"2023-158D","EPOCH":"2026-03-09T05:48:32.446944","MEAN_MOTION":15.26649023,"ECCENTRICITY":6.671e-5,"INCLINATION":42.9973,"RA_OF_ASC_NODE":29.3979,"ARG_OF_PERICENTER":266.2017,"MEAN_ANOMALY":93.8758,"EPHEMERIS_TYPE":0,"CLASSIFICATION_TYPE":"U","NORAD_CAT_ID":58054,"ELEMENT_SET_NO":999,"REV_AT_EPOCH":13350,"BSTAR":-0.0066933985,"MEAN_MOTION_DOT":-0.00175118,"MEAN_MOTION_DDOT":0},{"OBJECT_NAME":"M-SEL\/CORTEZ","OBJECT_ID":"2025-052X","EPOCH":"2026-03-09T22:43:08.037984","MEAN_MOTION":15.2443435,"ECCENTRICITY":0.00063111,"INCLINATION":97.4031,"RA_OF_ASC_NODE":323.6247,"ARG_OF_PERICENTER":125.7323,"MEAN_ANOMALY":234.4503,"EPHEMERIS_TYPE":0,"CLASSIFICATION_TYPE":"U","NORAD_CAT_ID":63231,"ELEMENT_SET_NO":999,"REV_AT_EPOCH":5479,"BSTAR":0.00042924652,"MEAN_MOTION_DOT":0.00010472,"MEAN_MOTION_DDOT":0}]
